full_name,spec_B,diameter,epoch,a,e,i,om,w,ma,moid
"277616 (2006 BN6)",,1.236,2458600.5,2.564010753626116,.6989237618712927,18.65064601971612,249.7079617893695,338.3138523586335,66.74255705959874,.183027
"277617 (2006 BT7)",,0.666,2458600.5,1.521911979221894,.6331387592163907,16.16090633691345,298.6023400827916,342.5202554410449,259.1358667785011,.252629
"277810 (2006 FV35)",,,2458600.5,1.001315486210295,.377460067885483,7.10380392637378,179.4996440591354,170.8314654358534,236.0829560447643,.10459
"277830 (2006 HR29)",,,2458600.5,.9856211779947842,.2639473211029166,9.540870114092909,232.5562536586814,212.6204318622494,201.974150141998,.0942571
"277958 (2006 SP134)",,,2458600.5,2.050775137001565,.7360515763357969,13.03774586779398,16.65705897841271,192.3022800287798,198.7138202558156,.217674
"278327 (2007 HA59)",,,2458600.5,2.511495593759864,.7260901702331757,54.65953039680225,57.16709459646093,17.59435589522773,95.35631197628109,.283671
"278381 (2007 MR)",,,2458600.5,1.023100356684201,.2588582732953502,5.827229516649332,172.7729741671158,217.665241552248,65.79275499508076,.0693436
"279744 (1998 KM3)",,,2458600.5,1.671115854438139,.6109832655494127,4.660666441960854,263.1187418561439,85.22186126977186,205.3572874938014,.0027324
"279816 (2000 JE5)",,,2458600.5,1.238212810795298,.400629393930255,50.73987780880764,41.2427368078906,285.1698640307164,211.2908768342783,.0464053
"280136 (2002 OM4)",,,2458600.5,1.495976610693732,.5627884400447346,55.31109617572662,143.0626187123765,28.1273461095639,132.4272031480697,.297425
"280244 (2002 WP11)",,,2458600.5,2.125863516054824,.4405971889859212,5.394264797798979,267.8924623528193,56.17166648170844,156.860998402539,.194175
"280491 (2004 MO7)",,,2458600.5,1.104696106226128,.4839947901234618,24.08162831051284,38.55047355087418,61.38134440447526,347.5196321577287,.0551985
"281070 (2006 OY10)",,,2458600.5,1.806582109409379,.5742008906459063,35.63325992308094,234.0395769689482,92.40336644144404,64.00831339326247,.135591
"281365 (2008 CM116)",,,2458600.5,1.630583414266882,.6630842738156548,18.70567269094977,.1236493584777301,355.788702024502,259.4294592023149,.315125
"281375 (2008 JV19)",,,2458600.5,.9854195858211948,.2484294596292062,7.224888943152601,141.9779041726591,310.5661582761753,176.1550805465736,.0411761
"283457 (2001 MQ3)",,,2454760.5,2.232131219394147,.4562769801848727,5.587193922683309,313.5828038282702,24.83890908598146,48.89914087856776,.208218
"283460 (2001 PD1)",K:,,2458600.5,2.233667278375243,.4583853927807889,5.961601693081009,282.0139214561192,95.27402040809666,92.54636238897834,.239755
"283729 (2002 UX)",,,2458600.5,1.473557507450447,.1634598142774856,20.20671767747388,263.8627806931935,84.35797527894114,113.4883371012823,.350191
"284114 (2005 TZ51)",,,2458600.5,2.125414671897805,.4297709344894941,10.83725000722026,280.3572950162097,127.527270300085,131.4175544531616,.268529
"284422 (2006 YD)",,,2458600.5,2.625794453996676,.6930931609045083,7.732286827680742,223.3857512732282,352.0899168019279,307.313629680285,.105402
"285110 (1995 MA1)",,,2458600.5,2.609162025066043,.5874556671018621,25.84184229776,87.65924820072469,265.8237709907214,199.449173542258,.364853
"285179 (1996 TY11)",,,2458600.5,1.22805103784903,.5353741680634195,13.93065940306189,30.64982365849552,158.7159839294129,77.19933791464267,.197824
"285263 (1998 QE2)",,,2458600.5,2.424061006042836,.571717759549074,12.86064115535032,250.1327450475473,345.6873550824584,206.3927671495468,.0340189
"285331 (1999 FN53)",,,2458600.5,1.735587367814367,.4557178897381808,20.16297096842927,50.59626824024053,191.7011405417715,258.5706650813818,.0576652
"285339 (1999 JR6)",,0.614,2458600.5,1.366505252228152,.6755661754685575,20.33241105100963,52.64949766168991,27.24732968949271,260.3233865262263,.221539
"285540 (2000 GU127)",S:,,2458600.5,2.104997910998212,.7268993825066659,8.487739454060485,171.9699815533386,138.8004062393824,57.74733859305148,.108303
"285567 (2000 OM)",,,2458600.5,1.701037698827387,.6407358665857746,13.58319775276297,123.5671980749716,73.94334627233675,195.9343236833748,.0528677
"285571 (2000 PQ9)",,,2458600.5,1.903936666089681,.4316904083475431,13.4738074841524,297.2205878186712,6.878479229957457,51.76038109436581,.0673154
"285625 (2000 RD34)",,,2458600.5,1.963525645228309,.3473505255264999,6.935525169558437,308.9412261378492,132.2532615578974,228.2327289148081,.312951
"285638 (2000 SO10)",,,2458600.5,1.299551363407685,.5402928186665727,36.96206874149895,356.4361773902393,204.0162349552973,329.2413275878247,.365338
"285818 (2001 BZ39)",,,2458600.5,1.988995893728279,.4211387222446681,8.833219154036154,225.1215294104444,197.1780004426474,214.033501210272,.167899
"285838 (2001 FA1)",,,2458600.5,1.882815702435163,.3595124387136841,33.80523061408857,175.7817768543117,326.7530085164751,15.58105095250966,.25733
"285944 (2001 RZ11)",,1.044,2458600.5,2.191978076542291,.5067287148828913,53.0767574092708,324.0219908387591,340.4934491228728,165.8459066738675,.0886422
"285990 (2001 SK9)",,,2458600.5,1.785500340420926,.7891656402112878,25.97281806603284,195.7773677284303,34.53757779813866,178.8247704674718,.219709
"286079 (2001 TW1)",,,2458600.5,.9113198652773952,.5260675493834641,31.32769583999612,27.36282370431936,208.8061894673949,150.1487987705101,.148674
"286080 (2001 TX1)",,,2458600.5,1.047371951639855,.4824789866680607,2.799971463239721,159.2092584719891,354.128444663607,47.88430292883098,.0423241
"288592 (2004 JW20)",,,2458600.5,.9527784948390059,.5615556887345171,14.7374650743414,235.1872809331448,207.4942909979656,125.3678376412176,.0989143
"288807 (2004 RW164)",,,2458600.5,1.489865722258989,.3767250949214297,36.77407455264832,164.9504875886859,342.8219865611593,242.9996022732537,.0512354
"288914 (2004 SX)",,,2458600.5,1.764519307255384,.3277093191586755,15.28200875445512,178.6097781454326,258.5078100059057,38.41561353997768,.321295
"289227 (2004 XY60)",,,2458600.5,.6402673966039283,.7967197634501676,23.7701575395074,122.6149978781231,130.8520273123888,233.1899623207454,.193912
"289315 (2005 AN26)",,,2458600.5,2.319696400085494,.6375945961716536,4.917857675626231,175.7891505424696,208.479103755223,40.80350126900658,.0384556
"290772 (2005 VC)",,,2458600.5,2.083169658161237,.5944495611451195,4.482832793858949,227.9882794200855,290.2182212873626,92.39154192453036,.0194594
"292165 (2006 SC6)",,,2458600.5,1.202925912845658,.5805409232175798,30.25538795805782,152.9903731300915,355.5288224109156,95.7401513860919,.465607
"292220 (2006 SU49)",,,2458600.5,1.412512726166514,.3119579521847418,2.518639209157414,303.1268275337469,198.9878240753003,59.51116780162382,.000260325
"293054 (2006 WP127)",,,2458600.5,2.531597216695763,.767150646002037,6.078135008076552,178.2879953761287,22.97264939671484,352.5073707772717,.0918524
"293726 (2007 RQ17)",,,2458600.5,1.578689531806796,.3694545688859471,2.008532308780012,350.5361816263814,302.1918643849955,329.2303311869239,.0205136
"294739 (2008 CM)",,,2458600.5,1.566140069405156,.4081126106662967,36.01348158532186,279.5626244292018,130.6762778736221,270.906291216906,.0443064
"296318 (2009 EN2)",,,2458600.5,1.65904696550918,.5247430543222134,47.36050639359382,144.8222949633805,138.0965673394153,238.1004278933754,.140118
"297274 (1996 SK)",,,2458600.5,2.434284171058642,.7943654876704032,1.963866447472452,197.4095069350666,284.3370462029193,317.088534104914,.00426661
"297300 (1998 SC15)",,0.320,2458600.5,1.273004772045758,.414502939435594,16.08145506816199,198.739295479588,277.4224752710536,45.21238574299665,.000342079
"297418 (2000 SP43)",,0.407,2458600.5,.8113223175945985,.4669533737163231,10.34914989681105,350.5755593367643,224.3979429289274,253.9984775670934,.019032
"299582 (2006 GQ2)",,0.622,2458600.5,1.290448609445531,.465948004890619,25.83856978408476,13.91903850692919,64.50765134038126,19.52810100683488,.125842
"301011 (2008 JO)",,,2458600.5,1.508643984088891,.5453809086494443,5.367913042081527,276.8956154074266,194.7374985389226,5.386735294545963,.0860836
"301844 (1990 UA)",,0.4,2458600.5,1.641948946045252,.52616346650853,.9284309055264736,104.2674404150842,202.5715213899079,230.7490403520363,.012144
"302010 (2000 SH8)",,,2458600.5,1.68827964177323,.4892848609051454,56.37053530623832,1.87883298540731,86.26794419423281,135.2870573074672,.206616
"302156 (2001 SF286)",,,2458600.5,1.268313135048847,.6454198659427015,29.51037358444672,231.9743428309326,19.00823663957805,160.1509741415074,.354659
"302169 (2001 TD45)",,,2458600.5,.7967363193082194,.7775000512926681,25.39417273907123,30.27549315559459,212.4431904201011,308.0204999754431,.0271121
"302311 (2002 AA)",Sq,,2458600.5,1.147681116311715,.3021936460376344,11.27644898379154,302.1883283340283,64.67257675523089,86.42816198147268,.057505
"302523 (2002 KH3)",,,2458600.5,2.677530897449254,.5844147599933813,10.24528135949953,259.0657410193319,35.11943145661663,293.3334623356706,.127896
"302591 (2002 QE7)",,,2458600.5,1.469885764807483,.1811940897044015,12.11153342696602,244.4843686669251,88.43765745112061,122.5241824871817,.291399
"302800 (2003 AA)",,,2458600.5,1.727334325121192,.2802852190464497,23.49682914450327,111.9363251950738,325.6828689910678,82.28547565947321,.295143
"302830 (2003 FB)",,,2458600.5,1.473026534220361,.4424694878700582,16.97547637896331,38.68092755210796,46.1331005474276,42.06381353314519,.0663309
"302831 (2003 FH)",,,2458600.5,1.389075669330353,.5407054244317924,25.79868252263935,24.15267267622743,274.3450464527943,240.9834254459779,.0132538
"302871 (2003 HA22)",,,2458600.5,1.876169547368351,.3947791922002578,1.608451416935012,121.8017105271158,163.4338459573375,50.04286797034339,.118748
"303174 (2004 FH11)",,1.504,2458600.5,2.256248491152034,.4464723107047577,21.37884160893824,203.5930072820087,88.0036832892702,135.7660797442912,.459378
"303248 (2004 QV16)",,,2458600.5,1.769053181982589,.5742415573000194,28.53335528004479,196.2504482301491,49.21500989652267,107.8070472030777,.113069
